CCSDS_OMM_VERS = 2.0
CREATION_DATE  = 
ORIGINATOR     = 

OBJECT_NAME    = RSP-03
OBJECT_ID      = 1998-067XL
CENTER_NAME    = EARTH
REF_FRAME      = TEME
TIME_SYSTEM    = UTC
MEAN_ELEMENT_THEORY = SGP/SGP4

EPOCH          = 2026-02-04T11:25:08.073696
MEAN_MOTION    = 15.96166133
ECCENTRICITY   = .0005761
INCLINATION    = 51.6160
RA_OF_ASC_NODE = 218.5066
ARG_OF_PERICENTER = 259.3276
MEAN_ANOMALY   = 100.7083

EPHEMERIS_TYPE = 0
CLASSIFICATION_TYPE = U
NORAD_CAT_ID   = 65732
ELEMENT_SET_NO = 999
REV_AT_EPOCH   = 2165
BSTAR          = .13481E-2
MEAN_MOTION_DOT = .570138E-2
MEAN_MOTION_DDOT = .14657E-3

CCSDS_OMM_VERS = 2.0
CREATION_DATE  = 
ORIGINATOR     = 

OBJECT_NAME    = YOTSUBA-KULOVER
OBJECT_ID      = 1998-067XN
CENTER_NAME    = EARTH
REF_FRAME      = TEME
TIME_SYSTEM    = UTC
MEAN_ELEMENT_THEORY = SGP/SGP4

EPOCH          = 2026-02-02T23:38:06.260352
MEAN_MOTION    = 15.69363652
ECCENTRICITY   = .00042468
INCLINATION    = 51.6239
RA_OF_ASC_NODE = 235.6577
ARG_OF_PERICENTER = 213.0597
MEAN_ANOMALY   = 147.0135

EPHEMERIS_TYPE = 0
CLASSIFICATION_TYPE = U
NORAD_CAT_ID   = 65941
ELEMENT_SET_NO = 999
REV_AT_EPOCH   = 1803
BSTAR          = .89351479E-3
MEAN_MOTION_DOT = .107724E-2
MEAN_MOTION_DDOT = 0

CCSDS_OMM_VERS = 2.0
CREATION_DATE  = 
ORIGINATOR     = 

OBJECT_NAME    = BOTAN
OBJECT_ID      = 1998-067XP
CENTER_NAME    = EARTH
REF_FRAME      = TEME
TIME_SYSTEM    = UTC
MEAN_ELEMENT_THEORY = SGP/SGP4

EPOCH          = 2026-02-03T21:59:06.281952
MEAN_MOTION    = 15.81334182
ECCENTRICITY   = .00054672
INCLINATION    = 51.6183
RA_OF_ASC_NODE = 227.5880
ARG_OF_PERICENTER = 240.0563
MEAN_ANOMALY   = 119.9896

EPHEMERIS_TYPE = 0
CLASSIFICATION_TYPE = U
NORAD_CAT_ID   = 65942
ELEMENT_SET_NO = 999
REV_AT_EPOCH   = 1822
BSTAR          = .14688566E-2
MEAN_MOTION_DOT = .306933E-2
MEAN_MOTION_DDOT = 0

CCSDS_OMM_VERS = 2.0
CREATION_DATE  = 
ORIGINATOR     = 

OBJECT_NAME    = E-KAGAKU-1
OBJECT_ID      = 1998-067XQ
CENTER_NAME    = EARTH
REF_FRAME      = TEME
TIME_SYSTEM    = UTC
MEAN_ELEMENT_THEORY = SGP/SGP4

EPOCH          = 2026-02-03T22:34:09.913728
MEAN_MOTION    = 15.69525109
ECCENTRICITY   = .00032425
INCLINATION    = 51.6262
RA_OF_ASC_NODE = 230.7980
ARG_OF_PERICENTER = 231.2100
MEAN_ANOMALY   = 128.8608

EPHEMERIS_TYPE = 0
CLASSIFICATION_TYPE = U
NORAD_CAT_ID   = 65943
ELEMENT_SET_NO = 999
REV_AT_EPOCH   = 1818
BSTAR          = .97344169E-3
MEAN_MOTION_DOT = .118334E-2
MEAN_MOTION_DDOT = 0

CCSDS_OMM_VERS = 2.0
CREATION_DATE  = 
ORIGINATOR     = 

OBJECT_NAME    = HRC MONOBLOCK CAMERA
OBJECT_ID      = 1998-067XR
CENTER_NAME    = EARTH
REF_FRAME      = TEME
TIME_SYSTEM    = UTC
MEAN_ELEMENT_THEORY = SGP/SGP4

EPOCH          = 2026-02-03T13:33:01.861632
MEAN_MOTION    = 15.58676411
ECCENTRICITY   = .00004083
INCLINATION    = 51.6280
RA_OF_ASC_NODE = 237.2888
ARG_OF_PERICENTER = 5.0318
MEAN_ANOMALY   = 355.0678

EPHEMERIS_TYPE = 0
CLASSIFICATION_TYPE = U
NORAD_CAT_ID   = 66052
ELEMENT_SET_NO = 999
REV_AT_EPOCH   = 1706
BSTAR          = .59928925E-3
MEAN_MOTION_DOT = .4674E-3
MEAN_MOTION_DDOT = 0

CCSDS_OMM_VERS = 2.0
CREATION_DATE  = 
ORIGINATOR     = 

OBJECT_NAME    = HTV-X1
OBJECT_ID      = 2025-241A
CENTER_NAME    = EARTH
REF_FRAME      = TEME
TIME_SYSTEM    = UTC
MEAN_ELEMENT_THEORY = SGP/SGP4

EPOCH          = 2026-02-04T00:25:30.395424
MEAN_MOTION    = 15.48378125
ECCENTRICITY   = .00111076
INCLINATION    = 51.6311
RA_OF_ASC_NODE = 238.8105
ARG_OF_PERICENTER = 61.9619
MEAN_ANOMALY   = 298.2491

EPHEMERIS_TYPE = 0
CLASSIFICATION_TYPE = U
NORAD_CAT_ID   = 66174
ELEMENT_SET_NO = 999
REV_AT_EPOCH   = 51
BSTAR          = .1987377E-3
MEAN_MOTION_DOT = .10297E-3
MEAN_MOTION_DDOT = 0

CCSDS_OMM_VERS = 2.0
CREATION_DATE  = 
ORIGINATOR     = 

OBJECT_NAME    = SZ-21 MODULE
OBJECT_ID      = 2025-246C
CENTER_NAME    = EARTH
REF_FRAME      = TEME
TIME_SYSTEM    = UTC
MEAN_ELEMENT_THEORY = SGP/SGP4

EPOCH          = 2026-02-04T10:16:24.746880
MEAN_MOTION    = 15.66025565
ECCENTRICITY   = .0003176
INCLINATION    = 41.4759
RA_OF_ASC_NODE = 47.7144
ARG_OF_PERICENTER = 274.1114
MEAN_ANOMALY   = 85.9364

EPHEMERIS_TYPE = 0
CLASSIFICATION_TYPE = U
NORAD_CAT_ID   = 66515
ELEMENT_SET_NO = 999
REV_AT_EPOCH   = 1285
BSTAR          = .32027E-3
MEAN_MOTION_DOT = .33533E-3
MEAN_MOTION_DDOT = 0

CCSDS_OMM_VERS = 2.0
CREATION_DATE  = 
ORIGINATOR     = 

OBJECT_NAME    = SHENZHOU-22
OBJECT_ID      = 2025-272A
CENTER_NAME    = EARTH
REF_FRAME      = TEME
TIME_SYSTEM    = UTC
MEAN_ELEMENT_THEORY = SGP/SGP4

EPOCH          = 2026-02-04T07:05:49.289568
MEAN_MOTION    = 15.59172508
ECCENTRICITY   = .00059729
INCLINATION    = 41.4675
RA_OF_ASC_NODE = 51.1227
ARG_OF_PERICENTER = 356.5106
MEAN_ANOMALY   = 3.5690

EPHEMERIS_TYPE = 0
CLASSIFICATION_TYPE = U
NORAD_CAT_ID   = 66645
ELEMENT_SET_NO = 999
REV_AT_EPOCH   = 26764
BSTAR          = .22165126E-3
MEAN_MOTION_DOT = .1758E-3
MEAN_MOTION_DDOT = 0

CCSDS_OMM_VERS = 2.0
CREATION_DATE  = 
ORIGINATOR     = 

OBJECT_NAME    = SOYUZ-MS 28
OBJECT_ID      = 2025-275A
CENTER_NAME    = EARTH
REF_FRAME      = TEME
TIME_SYSTEM    = UTC
MEAN_ELEMENT_THEORY = SGP/SGP4

EPOCH          = 2026-02-04T08:10:12.072000
MEAN_MOTION    = 15.48385070
ECCENTRICITY   = .0011114
INCLINATION    = 51.6311
RA_OF_ASC_NODE = 237.2151
ARG_OF_PERICENTER = 63.0955
MEAN_ANOMALY   = 297.1168

EPHEMERIS_TYPE = 0
CLASSIFICATION_TYPE = U
NORAD_CAT_ID   = 66664
ELEMENT_SET_NO = 999
REV_AT_EPOCH   = 55116
BSTAR          = .19091E-3
MEAN_MOTION_DOT = .9876E-4
MEAN_MOTION_DDOT = 0

CCSDS_OMM_VERS = 2.0
CREATION_DATE  = 
ORIGINATOR     = 

OBJECT_NAME    = DUPLEX
OBJECT_ID      = 1998-067XS
CENTER_NAME    = EARTH
REF_FRAME      = TEME
TIME_SYSTEM    = UTC
MEAN_ELEMENT_THEORY = SGP/SGP4

EPOCH          = 2026-02-04T02:29:55.999104
MEAN_MOTION    = 15.53830479
ECCENTRICITY   = .00015312
INCLINATION    = 51.6284
RA_OF_ASC_NODE = 237.1408
ARG_OF_PERICENTER = 84.3291
MEAN_ANOMALY   = 275.7874

EPHEMERIS_TYPE = 0
CLASSIFICATION_TYPE = U
NORAD_CAT_ID   = 66906
ELEMENT_SET_NO = 999
REV_AT_EPOCH   = 990
BSTAR          = .49828862E-3
MEAN_MOTION_DOT = .32284E-3
MEAN_MOTION_DDOT = 0

CCSDS_OMM_VERS = 2.0
CREATION_DATE  = 
ORIGINATOR     = 

OBJECT_NAME    = 1998-067XT
OBJECT_ID      = 1998-067XT
CENTER_NAME    = EARTH
REF_FRAME      = TEME
TIME_SYSTEM    = UTC
MEAN_ELEMENT_THEORY = SGP/SGP4

EPOCH          = 2026-02-03T22:06:05.284800
MEAN_MOTION    = 15.60522221
ECCENTRICITY   = .00025091
INCLINATION    = 51.6255
RA_OF_ASC_NODE = 236.6654
ARG_OF_PERICENTER = 183.1784
MEAN_ANOMALY   = 176.9194

EPHEMERIS_TYPE = 0
CLASSIFICATION_TYPE = U
NORAD_CAT_ID   = 66907
ELEMENT_SET_NO = 999
REV_AT_EPOCH   = 989
BSTAR          = .11897921E-2
MEAN_MOTION_DOT = .1008E-2
MEAN_MOTION_DDOT = 0

CCSDS_OMM_VERS = 2.0
CREATION_DATE  = 
ORIGINATOR     = 

OBJECT_NAME    = 1998-067XU
OBJECT_ID      = 1998-067XU
CENTER_NAME    = EARTH
REF_FRAME      = TEME
TIME_SYSTEM    = UTC
MEAN_ELEMENT_THEORY = SGP/SGP4

EPOCH          = 2026-02-04T02:42:02.601504
MEAN_MOTION    = 15.60602240
ECCENTRICITY   = .00022681
INCLINATION    = 51.6254
RA_OF_ASC_NODE = 235.6928
ARG_OF_PERICENTER = 182.8483
MEAN_ANOMALY   = 177.2498

EPHEMERIS_TYPE = 0
CLASSIFICATION_TYPE = U
NORAD_CAT_ID   = 66908
ELEMENT_SET_NO = 999
REV_AT_EPOCH   = 992
BSTAR          = .11748259E-2
MEAN_MOTION_DOT = .99819E-3
MEAN_MOTION_DDOT = 0

